IRIDIUM 154             
1 43574U 18061F   26191.04590704  .00000230  00000+0  74938-4 0  9996
2 43574  86.3945  47.2461 0002313  90.2087 269.9374 14.34217301416680
IRIDIUM 163             
1 43575U 18061G   26191.02687937  .00000177  00000+0  56161-4 0  9998
2 43575  86.3939  47.1685 0002178  85.1435 275.0009 14.34217315416655
IRIDIUM 156             
1 43576U 18061H   26191.07127808  .00000135  00000+0  41269-4 0  9997
2 43576  86.3939  47.1572 0002057  90.4782 269.6649 14.34217543416653
IRIDIUM 164             
1 43577U 18061J   26190.56387249  .00000122  00000+0  36382-4 0  9994
2 43577  86.3941  47.4104 0002307  89.7365 270.4095 14.34216708416621
IRIDIUM 159             
1 43578U 18061K   26191.29961054  .00000130  00000+0  39382-4 0  9990
2 43578  86.3939  47.0388 0002186  85.2947 274.8498 14.34217565416695
IRIDIUM 180             
1 43922U 19002A   26190.67119247 -.00000022  00000+0 -14865-4 0  9990
2 43922  86.3984 344.1979 0002121  91.4144 268.7295 14.34216744392218
IRIDIUM 176             
1 43923U 19002B   26190.38451768  .00000566  00000+0  85864-4 0  9994
2 43923  86.6104 344.2577 0002345  89.0297 271.1189 14.72244323402512
IRIDIUM 168             
1 43924U 19002C   26190.52530810  .00000052  00000+0  11479-4 0  9998
2 43924  86.3988 344.3364 0002235  90.8115 269.3337 14.34217858392177
IRIDIUM 173             
1 43925U 19002D   26190.72193023  .00000096  00000+0  27388-4 0  9996
2 43925  86.3984 344.1423 0002196  91.6733 268.4714 14.34218212392184
IRIDIUM 169             
1 43926U 19002E   26190.99695468  .00000174  00000+0  50211-4 0  9994
2 43926  86.4218  15.6541 0001745  99.0711 261.0685 14.38613183393507
IRIDIUM 172             
1 43927U 19002F   26190.50628438  .00000187  00000+0  59640-4 0  9994
2 43927  86.3982 344.2404 0002190  90.3356 269.8091 14.34217339392165
IRIDIUM 175             
1 43928U 19002G   26191.21897371  .00000199  00000+0  52813-4 0  9996
2 43928  86.4514 280.8941 0005016 125.2639 234.9032 14.43625623402306
IRIDIUM 171             
1 43929U 19002H   26190.69656149  .00000165  00000+0  51839-4 0  9994
2 43929  86.3992 344.4693 0002196  94.9593 265.1854 14.34217563392186
IRIDIUM 170             
1 43930U 19002J   26190.93443422  .00000521  00000+0  78671-4 0  9990
2 43930  86.6105 344.0300 0002327  85.6191 274.5292 14.72245345402605
IRIDIUM 167             
1 43931U 19002K   26190.48091339  .00000150  00000+0  46439-4 0  9992
2 43931  86.3985 344.2735 0002206  99.5792 260.5653 14.34217555392154
IRIDIUM 181             
1 56726U 23068S   26191.12381287  .00000194  00000+0  51625-4 0  9992
2 56726  86.4478  47.1994 0002441  84.6564 275.4915 14.43310542165746
IRIDIUM 177             
1 56727U 23068T   26191.30904597  .00000703  00000+0  89433-4 0  9992
2 56727  86.1981 317.8128 0002146  92.8146 267.3320 14.80025290169780
IRIDIUM 174             
1 56728U 23068U   26190.85405393  .00000543  00000+0  82137-4 0  9998
2 56728  86.6113 344.2132 0002063  83.7808 276.3644 14.72253743169353
IRIDIUM 178             
1 56729U 23068V   26189.94579956  .00000550  00000+0  69254-4 0  9997
2 56729  86.6533  16.2655 0002273  87.3865 272.7617 14.80025032169584
IRIDIUM 179             
1 56730U 23068W   26191.29269069  .00000638  00000+0  80910-4 0  9990
2 56730  86.6765  24.7506 0002282  91.5805 268.5678 14.80032503169786
